{"type": "FeatureCollection", "features": [{"type": "Feature", "properties": {"norad_id": 32275, "name": "COSMOS 2433 (720)", "group": "glo-ops", "lat": 21.225428985423278, "lon": -27.565031710895166, "alt_km": 19136.338947131826, "timestamp": "2025-12-08T21:31:04.928773+00:00", "meta": {"OBJECT_NAME": "COSMOS 2433 (720)", "OBJECT_ID": "2007-052A", "EPOCH": "2025-12-07T22:15:39.436992", "MEAN_MOTION": 2.13103936, "ECCENTRICITY": 0.00054366, "INCLINATION": 65.6859, "RA_OF_ASC_NODE": 322.3673, "ARG_OF_PERICENTER": 253.7081, "MEAN_ANOMALY": 106.2283, "EPHEMERIS_TYPE": 0, "CLASSIFICATION_TYPE": "U", "NORAD_CAT_ID": 32275, "ELEMENT_SET_NO": 999, "REV_AT_EPOCH": 14098, "BSTAR": 0, "MEAN_MOTION_DOT": -4.9e-07, "MEAN_MOTION_DDOT": 0}, "tle": {"line1": "1 32275U 07052A   25341.92753978 -.00000049  00000+0  00000+0 0  9990", "line2": "2 32275  65.6859 322.3673 0005436 253.7081 106.2283  2.13103936140982"}}, "geometry": {"type": "Point", "coordinates": [-27.565031710895166, 21.225428985423278]}}, {"type": "Feature", "properties": {"norad_id": 32276, "name": "COSMOS 2432 (719)", "group": "glo-ops", "lat": -28.987115799478286, "lon": -52.044821358528054, "alt_km": 19106.036446004535, "timestamp": "2025-12-08T21:31:04.928797+00:00", "meta": {"OBJECT_NAME": "COSMOS 2432 (719)", "OBJECT_ID": "2007-052B", "EPOCH": "2025-12-08T02:14:19.806720", "MEAN_MOTION": 2.13103088, "ECCENTRICITY": 0.00112877, "INCLINATION": 65.7017, "RA_OF_ASC_NODE": 322.4859, "ARG_OF_PERICENTER": 312.3782, "MEAN_ANOMALY": 119.1922, "EPHEMERIS_TYPE": 0, "CLASSIFICATION_TYPE": "U", "NORAD_CAT_ID": 32276, "ELEMENT_SET_NO": 999, "REV_AT_EPOCH": 14101, "BSTAR": 0, "MEAN_MOTION_DOT": -4.9e-07, "MEAN_MOTION_DDOT": 0}, "tle": {"line1": "1 32276U 07052B   25342.09328480 -.00000049  00000+0  00000+0 0  9996", "line2": "2 32276  65.7017 322.4859 0011287 312.3782 119.1922  2.13103088141014"}}, "geometry": {"type": "Point", "coordinates": [-52.044821358528054, -28.987115799478286]}}, {"type": "Feature", "properties": {"norad_id": 32393, "name": "COSMOS 2434 (721)", "group": "glo-ops", "lat": -64.01894899189777, "lon": 117.35415393474344, "alt_km": 19147.052827269254, "timestamp": "2025-12-08T21:31:04.928813+00:00", "meta": {"OBJECT_NAME": "COSMOS 2434 (721)", "OBJECT_ID": "2007-065A", "EPOCH": "2025-12-08T05:21:15.731136", "MEAN_MOTION": 2.13101228, "ECCENTRICITY": 0.00044814, "INCLINATION": 64.3148, "RA_OF_ASC_NODE": 198.3559, "ARG_OF_PERICENTER": 71.0536, "MEAN_ANOMALY": 46.2753, "EPHEMERIS_TYPE": 0, "CLASSIFICATION_TYPE": "U", "NORAD_CAT_ID": 32393, "ELEMENT_SET_NO": 999, "REV_AT_EPOCH": 13970, "BSTAR": 0, "MEAN_MOTION_DOT": 5e-07, "MEAN_MOTION_DDOT": 0}, "tle": {"line1": "1 32393U 07065A   25342.22309874  .00000050  00000+0  00000+0 0  9992", "line2": "2 32393  64.3148 198.3559 0004481  71.0536  46.2753  2.13101228139704"}}, "geometry": {"type": "Point", "coordinates": [117.35415393474344, -64.01894899189777]}}, {"type": "Feature", "properties": {"norad_id": 32395, "name": "COSMOS 2436 (723)", "group": "glo-ops", "lat": 41.35536392294708, "lon": -136.53753989774606, "alt_km": 19089.488171184326, "timestamp": "2025-12-08T21:31:04.928826+00:00", "meta": {"OBJECT_NAME": "COSMOS 2436 (723)", "OBJECT_ID": "2007-065C", "EPOCH": "2025-12-08T02:01:11.627904", "MEAN_MOTION": 2.13100022, "ECCENTRICITY": 0.00177472, "INCLINATION": 64.3236, "RA_OF_ASC_NODE": 198.4308, "ARG_OF_PERICENTER": 9.2257, "MEAN_ANOMALY": 134.6131, "EPHEMERIS_TYPE": 0, "CLASSIFICATION_TYPE": "U", "NORAD_CAT_ID": 32395, "ELEMENT_SET_NO": 999, "REV_AT_EPOCH": 13965, "BSTAR": 0, "MEAN_MOTION_DOT": 5.1e-07, "MEAN_MOTION_DDOT": 0}, "tle": {"line1": "1 32395U 07065C   25342.08416236  .00000051  00000+0  00000+0 0  9990", "line2": "2 32395  64.3236 198.4308 0017747   9.2257 134.6131  2.13100022139656"}}, "geometry": {"type": "Point", "coordinates": [-136.53753989774606, 41.35536392294708]}}, {"type": "Feature", "properties": {"norad_id": 36111, "name": "COSMOS 2456 (730)", "group": "glo-ops", "lat": 58.95964287212454, "lon": 128.52786085536135, "alt_km": 19128.6853421994, "timestamp": "2025-12-08T21:31:04.928838+00:00", "meta": {"OBJECT_NAME": "COSMOS 2456 (730)", "OBJECT_ID": "2009-070A", "EPOCH": "2025-12-08T11:09:04.675680", "MEAN_MOTION": 2.13103441, "ECCENTRICITY": 0.0003073, "INCLINATION": 64.8977, "RA_OF_ASC_NODE": 77.4841, "ARG_OF_PERICENTER": 297.5438, "MEAN_ANOMALY": 162.1384, "EPHEMERIS_TYPE": 0, "CLASSIFICATION_TYPE": "U", "NORAD_CAT_ID": 36111, "ELEMENT_SET_NO": 999, "REV_AT_EPOCH": 12436, "BSTAR": 0, "MEAN_MOTION_DOT": -1.5e-07, "MEAN_MOTION_DDOT": 0}, "tle": {"line1": "1 36111U 09070A   25342.46463745 -.00000015  00000+0  00000+0 0  9998", "line2": "2 36111  64.8977  77.4841 0003073 297.5438 162.1384  2.13103441124367"}}, "geometry": {"type": "Point", "coordinates": [128.52786085536135, 58.95964287212454]}}, {"type": "Feature", "properties": {"norad_id": 36112, "name": "COSMOS 2457 (733)", "group": "glo-ops", "lat": -18.32471934979963, "lon": -93.75216371086277, "alt_km": 19123.807775526348, "timestamp": "2025-12-08T21:31:04.928850+00:00", "meta": {"OBJECT_NAME": "COSMOS 2457 (733)", "OBJECT_ID": "2009-070B", "EPOCH": "2025-12-08T05:12:02.715840", "MEAN_MOTION": 2.13100811, "ECCENTRICITY": 0.0004735, "INCLINATION": 64.8829, "RA_OF_ASC_NODE": 77.3403, "ARG_OF_PERICENTER": 158.3782, "MEAN_ANOMALY": 240.2784, "EPHEMERIS_TYPE": 0, "CLASSIFICATION_TYPE": "U", "NORAD_CAT_ID": 36112, "ELEMENT_SET_NO": 999, "REV_AT_EPOCH": 12436, "BSTAR": 0, "MEAN_MOTION_DOT": -1.5e-07, "MEAN_MOTION_DDOT": 0}, "tle": {"line1": "1 36112U 09070B   25342.21669810 -.00000015  00000+0  00000+0 0  9993", "line2": "2 36112  64.8829  77.3403 0004735 158.3782 240.2784  2.13100811124369"}}, "geometry": {"type": "Point", "coordinates": [-93.75216371086277, -18.32471934979963]}}, {"type": "Feature", "properties": {"norad_id": 36402, "name": "COSMOS 2460 (732)", "group": "glo-ops", "lat": -17.85950355271903, "lon": 149.3262988117045, "alt_km": 19130.56851977802, "timestamp": "2025-12-08T21:31:04.928862+00:00", "meta": {"OBJECT_NAME": "COSMOS 2460 (732)", "OBJECT_ID": "2010-007C", "EPOCH": "2025-12-08T09:33:32.724288", "MEAN_MOTION": 2.13106071, "ECCENTRICITY": 0.00026933, "INCLINATION": 65.5321, "RA_OF_ASC_NODE": 320.92, "ARG_OF_PERICENTER": 274.6585, "MEAN_ANOMALY": 262.7248, "EPHEMERIS_TYPE": 0, "CLASSIFICATION_TYPE": "U", "NORAD_CAT_ID": 36402, "ELEMENT_SET_NO": 999, "REV_AT_EPOCH": 12266, "BSTAR": 0, "MEAN_MOTION_DOT": -4.9e-07, "MEAN_MOTION_DDOT": 0}, "tle": {"line1": "1 36402U 10007C   25342.39829542 -.00000049  00000+0  00000+0 0  9993", "line2": "2 36402  65.5321 320.9200 0002693 274.6585 262.7248  2.13106071122661"}}, "geometry": {"type": "Point", "coordinates": [149.3262988117045, -17.85950355271903]}}, {"type": "Feature", "properties": {"norad_id": 37867, "name": "COSMOS 2476 (744)", "group": "glo-ops", "lat": -18.372511534752142, "lon": 70.47256292960044, "alt_km": 19149.381642343134, "timestamp": "2025-12-08T21:31:04.928873+00:00", "meta": {"OBJECT_NAME": "COSMOS 2476 (744)", "OBJECT_ID": "2011-064A", "EPOCH": "2025-12-08T12:40:16.683168", "MEAN_MOTION": 2.131013, "ECCENTRICITY": 0.00241182, "INCLINATION": 65.16, "RA_OF_ASC_NODE": 79.314, "ARG_OF_PERICENTER": 233.9995, "MEAN_ANOMALY": 182.6426, "EPHEMERIS_TYPE": 0, "CLASSIFICATION_TYPE": "U", "NORAD_CAT_ID": 37867, "ELEMENT_SET_NO": 999, "REV_AT_EPOCH": 10970, "BSTAR": 0, "MEAN_MOTION_DOT": -1.2e-07, "MEAN_MOTION_DDOT": 0}, "tle": {"line1": "1 37867U 11064A   25342.52797087 -.00000012  00000+0  00000+0 0  9996", "line2": "2 37867  65.1600  79.3140 0024118 233.9995 182.6426  2.13101300109708"}}, "geometry": {"type": "Point", "coordinates": [70.47256292960044, -18.372511534752142]}}, {"type": "Feature", "properties": {"norad_id": 37868, "name": "COSMOS 2477 (745)", "group": "glo-ops", "lat": 17.951001699297734, "lon": -109.22886270883104, "alt_km": 19113.351020235088, "timestamp": "2025-12-08T21:31:04.928884+00:00", "meta": {"OBJECT_NAME": "COSMOS 2477 (745)", "OBJECT_ID": "2011-064B", "EPOCH": "2025-12-08T06:12:22.664160", "MEAN_MOTION": 2.13102704, "ECCENTRICITY": 0.0021182, "INCLINATION": 65.1663, "RA_OF_ASC_NODE": 79.4007, "ARG_OF_PERICENTER": 234.576, "MEAN_ANOMALY": 156.3219, "EPHEMERIS_TYPE": 0, "CLASSIFICATION_TYPE": "U", "NORAD_CAT_ID": 37868, "ELEMENT_SET_NO": 999, "REV_AT_EPOCH": 10969, "BSTAR": 0, "MEAN_MOTION_DOT": -1.1e-07, "MEAN_MOTION_DDOT": 0}, "tle": {"line1": "1 37868U 11064B   25342.25859565 -.00000011  00000+0  00000+0 0  9996", "line2": "2 37868  65.1663  79.4007 0021182 234.5760 156.3219  2.13102704109691"}}, "geometry": {"type": "Point", "coordinates": [-109.22886270883104, 17.951001699297734]}}, {"type": "Feature", "properties": {"norad_id": 37869, "name": "COSMOS 2475 (743)", "group": "glo-ops", "lat": 54.59601902235235, "lon": -141.15613501877385, "alt_km": 19168.88978232917, "timestamp": "2025-12-08T21:31:04.928895+00:00", "meta": {"OBJECT_NAME": "COSMOS 2475 (743)", "OBJECT_ID": "2011-064C", "EPOCH": "2025-12-08T07:57:01.791072", "MEAN_MOTION": 2.13101382, "ECCENTRICITY": 0.00262509, "INCLINATION": 65.1734, "RA_OF_ASC_NODE": 79.4181, "ARG_OF_PERICENTER": 248.5935, "MEAN_ANOMALY": 154.0263, "EPHEMERIS_TYPE": 0, "CLASSIFICATION_TYPE": "U", "NORAD_CAT_ID": 37869, "ELEMENT_SET_NO": 999, "REV_AT_EPOCH": 10970, "BSTAR": 0, "MEAN_MOTION_DOT": -1.1e-07, "MEAN_MOTION_DDOT": 0}, "tle": {"line1": "1 37869U 11064C   25342.33127073 -.00000011  00000+0  00000+0 0  9998", "line2": "2 37869  65.1734  79.4181 0026250 248.5935 154.0263  2.13101382109701"}}, "geometry": {"type": "Point", "coordinates": [-141.15613501877385, 54.59601902235235]}}]}